KUIPER-00269            
1 68587U 26072Q   26108.60133921  .00023796  00000+0  64104-3 0  9997
2 68587  51.8732 105.0652 0004721 137.4250 222.7103 15.37702429  2219
KUIPER-00272            
1 68588U 26072R   26107.88884342  .00011067  00000+0  30684-3 0  9991
2 68588  51.8712 108.5397 0005799 144.5630 215.5743 15.37434103  2108
KUIPER-00285            
1 68589U 26072S   26107.88973118  .00011012  00000+0  30626-3 0  9998
2 68589  51.8722 108.5453 0006269 150.8397 209.2941 15.37341864  2107
KUIPER-00286            
1 68590U 26072T   26107.88594172  .00011410  00000+0  31272-3 0  9999
2 68590  51.8720 108.5213 0004183 132.8353 227.2986 15.37765200  2109
KUIPER-00289            
1 68591U 26072U   26108.55205163  .00021120  00000+0  60057-3 0  9996
2 68591  51.8649 105.4780 0010612 168.5999 191.5229 15.36052317  2202
KUIPER-00290            
1 68592U 26072V   26108.55145157  .00020541  00000+0  58409-3 0  9997
2 68592  51.8630 105.4724 0010908 166.2840 193.8444 15.36069138  2202
KUIPER-00293            
1 68593U 26072W   26108.48966996 -.00006815  00000+0 -18259-3 0  9991
2 68593  51.8630 105.8080 0011342 170.8472 189.2723 15.35600561  2194
KUIPER-00294            
1 68594U 26072X   26108.67952678  .00019564  00000+0  55281-3 0  9994
2 68594  51.8668 104.8344 0009558 166.9671 193.1564 15.36312082  2221
KUIPER-00296            
1 68595U 26072Y   26108.54594622  .00018995  00000+0  53050-3 0  9991
2 68595  51.8690 105.4413 0008497 160.6872 199.4438 15.36706435  2202
KUIPER-00297            
1 68596U 26072Z   26107.96504071  .00013654  00000+0  39152-3 0  9990
2 68596  51.8616 108.2926 0009814 165.2517 194.8757 15.36140391  2118
KUIPER-00300            
1 68597U 26072AA  26107.89389968  .00010341  00000+0  29257-3 0  9994
2 68597  51.8661 108.5711 0007988 157.9659 202.1672 15.36867041  2105
KUIPER-00301            
1 68598U 26072AB  26107.89670207  .00009939  00000+0  28453-3 0  9992
2 68598  51.8639 108.5876 0008657 161.2098 198.9210 15.36540316  2105
KUIPER-00304            
1 68599U 26072AC  26107.96252974  .00014220  00000+0  40322-3 0  9996
2 68599  51.8654 108.2793 0009305 161.0401 199.0934 15.36458128  2110
KUIPER-00317            
1 68600U 26072AD  26108.54513135  .00019842  00000+0  55208-3 0  9997
2 68600  51.8678 105.4354 0008401 154.8618 205.2779 15.36795084  2209
KUIPER-00320            
1 68601U 26072AE  26107.90201149  .00008945  00000+0  26185-3 0  9990
2 68601  51.8593 108.6171 0011027 167.2703 192.8563 15.35955390  2107
STARLINK-37135          
1 68602U 26073A   26109.00002315 -.00023342  00000+0 -15624-3 0  9995
2 68602  97.2851 306.7129 0000919  92.2542  97.1444 15.75163413  3016
